IRIDIUM 63              
1 25286U 98021B   25140.94403216  .00000423  00000+0  13756-3 0  9997
2 25286  86.3960  93.5606 0002354  82.6723 277.4742 14.36525201419936
IRIDIUM 71              
1 25320U 98026B   25140.91173199  .00000469  00000+0  13938-3 0  9994
2 25320  86.3950 101.6433 0003183 129.3997 230.7485 14.41136390419665
IRIDIUM 73              
1 25344U 98032C   25140.76599997  .00000589  00000+0  14161-3 0  9990
2 25344  86.4424  58.4608 0003002  85.6886 274.4663 14.51685673426588
